SENTINEL-6              
1 46984U 20086A   23259.71666331 -.00000062  00000+0 -61380-5 0  9993
2 46984  66.0414  61.3461 0007848 268.2303  91.7814 12.80929824131804
